NORAD_CAT_ID,OBJECT_NAME,OBJECT_TYPE,EPOCH,MEAN_MOTION,ECCENTRICITY,INCLINATION,RA_OF_ASC_NODE,ARG_OF_PERICENTER,MEAN_ANOMALY,BSTAR,MEAN_MOTION_DOT,MEAN_MOTION_DDOT,TLE_LINE0,TLE_LINE1,TLE_LINE2,SEMIMAJOR_AXIS,PERIOD,APOGEE,PERIGEE,DECAYED
53849.0,STARLINK-4770,PAYLOAD,2023-10-10 10:21:17,15.08849458,0.0001625,53.2163,290.0946,103.7921,256.3252,0.00018018,2.581e-05,0.0,0 STARLINK-4770,1 53849U 22114AH  23283.43145082  .00002581  00000-0  18018-3 0  9991,2 53849  53.2163 290.0946 0001625 103.7921 256.3252 15.08849458 59931,6917.851,95.437,540.841,538.592,0.0
53849.0,STARLINK-4770,PAYLOAD,2023-10-11 00:39:46,15.08833017,0.0001563,53.2162,287.422,88.1229,271.9942,-6.9379e-05,-1.392e-05,0.0,0 STARLINK-4770,1 53849U 22114AH  23284.02762089 -.00001392  00000-0 -69379-4 0  9997,2 53849  53.2162 287.4220 0001563  88.1229 271.9942 15.08833017 59486,6917.902,95.438,540.848,538.685,0.0
53849.0,STARLINK-4770,PAYLOAD,2023-10-11 10:12:05,15.088394,0.0001639,53.2161,285.6362,97.4305,262.6873,3.781e-05,3.14e-06,0.0,0 STARLINK-4770,1 53849U 22114AH  23284.42505850  .00000314  00000-0  37810-4 0  9998,2 53849  53.2161 285.6362 0001639  97.4305 262.6873 15.08839400 60084,6917.882,95.438,540.881,538.613,0.0
53849.0,STARLINK-4770,PAYLOAD,2023-10-12 03:41:19,15.0883656,0.0001572,53.2152,282.3633,99.2201,260.8969,8.6268e-05,1.085e-05,0.0,0 STARLINK-4770,1 53849U 22114AH  23285.15370332  .00001085  00000-0  86268-4 0  9991,2 53849  53.2152 282.3633 0001572  99.2201 260.8969 15.08836560 59651,6917.891,95.438,540.843,538.668,0.0
53849.0,STARLINK-4770,PAYLOAD,2023-10-12 06:52:05,15.088427,0.0001501,53.2153,281.7695,96.9675,263.1487,0.00017852,2.555e-05,0.0,0 STARLINK-4770,1 53849U 22114AH  23285.28617965  .00002555  00000-0  17852-3 0  9996,2 53849  53.2153 281.7695 0001501  96.9675 263.1487 15.08842700 60212,6917.872,95.437,540.776,538.699,0.0
53849.0,STARLINK-4770,PAYLOAD,2023-10-12 16:24:24,15.0884181,0.0001521,53.2155,279.9866,96.3462,263.7703,0.00010804,1.432e-05,0.0,0 STARLINK-4770,1 53849U 22114AH  23285.68362087  .00001432  00000-0  10804-3 0  9995,2 53849  53.2155 279.9866 0001521  96.3462 263.7703 15.08841810 60277,6917.875,95.437,540.792,538.688,0.0
53849.0,STARLINK-4770,PAYLOAD,2023-10-13 08:18:16,15.08851468,0.0001551,53.2161,277.0127,94.1981,265.9189,0.00032586,4.903e-05,0.0,0 STARLINK-4770,1 53849U 22114AH  23286.34601873  .00004903  00000-0  32586-3 0  9995,2 53849  53.2161 277.0127 0001551  94.1981 265.9189 15.08851468 59830,6917.845,95.437,540.783,538.637,0.0
53849.0,STARLINK-4770,PAYLOAD,2023-10-13 16:15:11,15.08847463,0.0001403,53.2154,275.5235,88.11,272.0053,0.00019204,2.77e-05,0.0,0 STARLINK-4770,1 53849U 22114AH  23286.67721807  .00002770  00000-0  19204-3 0  9993,2 53849  53.2154 275.5235 0001403  88.1100 272.0053 15.08847463 60423,6917.858,95.437,540.693,538.752,0.0
53849.0,STARLINK-4770,PAYLOAD,2023-10-14 04:58:17,15.08839689,0.0001908,53.2168,273.1492,99.1532,260.9676,6.14e-05,6.89e-06,0.0,0 STARLINK-4770,1 53849U 22114AH  23287.20714351  .00000689  00000-0  61400-4 0  9992,2 53849  53.2168 273.1492 0001908  99.1532 260.9676 15.08839689 59963,6917.881,95.438,541.066,538.426,0.0
53849.0,STARLINK-4770,PAYLOAD,2023-10-14 08:09:03,15.08843344,0.0001938,53.2178,272.5537,96.8698,263.2515,7.3601e-05,8.83e-06,0.0,0 STARLINK-4770,1 53849U 22114AH  23287.33962121  .00000883  00000-0  73601-4 0  9998,2 53849  53.2178 272.5537 0001938  96.8698 263.2515 15.08843344 60522,6917.87,95.437,541.076,538.394,0.0
53849.0,STARLINK-4770,PAYLOAD,2023-10-15 04:49:05,15.08827378,0.000165,53.217,268.6864,88.9244,271.1937,-0.00021705,-3.74e-05,0.0,0 STARLINK-4770,1 53849U 22114AH  23288.20075259 -.00003740  00000-0 -21705-3 0  9996,2 53849  53.2170 268.6864 0001650  88.9244 271.1937 15.08827378 60113,6917.919,95.438,540.925,538.643,0.0
53849.0,STARLINK-4770,PAYLOAD,2023-10-15 07:59:51,15.08837324,0.0001484,53.2172,268.0906,89.8774,270.2388,-6.2784e-05,-1.287e-05,0.0,0 STARLINK-4770,1 53849U 22114AH  23288.33323387 -.00001287  00000-0 -62784-4 0  9995,2 53849  53.2172 268.0906 0001484  89.8774 270.2388 15.08837324 60672,6917.889,95.438,540.78,538.727,0.0
53849.0,STARLINK-4770,PAYLOAD,2023-10-15 15:56:46,15.08835524,0.0001538,53.2173,266.6041,86.9432,273.1736,1.1953e-05,-9.8e-07,0.0,0 STARLINK-4770,1 53849U 22114AH  23288.66443028 -.00000098  00000-0  11953-4 0  9996,2 53849  53.2173 266.6041 0001538  86.9432 273.1736 15.08835524 60181,6917.894,95.438,540.823,538.695,0.0
53849.0,STARLINK-4770,PAYLOAD,2023-10-16 06:15:14,15.08853414,0.0001359,53.2153,263.9284,92.5263,267.5885,0.00032139,4.833e-05,0.0,0 STARLINK-4770,1 53849U 22114AH  23289.26058399  .00004833  00000-0  32139-3 0  9994,2 53849  53.2153 263.9284 0001359  92.5263 267.5885 15.08853414 60274,6917.839,95.437,540.645,538.764,0.0
53849.0,STARLINK-4770,PAYLOAD,2023-10-16 22:09:06,15.08846462,0.0001468,53.2151,260.9553,89.8226,270.2935,0.00036994,5.606e-05,0.0,0 STARLINK-4770,1 53849U 22114AH  23289.92298846  .00005606  00000-0  36994-3 0  9992,2 53849  53.2151 260.9553 0001468  89.8226 270.2935 15.08846462 60910,6917.861,95.437,540.741,538.71,0.0
53849.0,STARLINK-4770,PAYLOAD,2023-10-18 02:46:02,15.0884427,0.0001367,53.2165,255.5996,99.8456,260.269,0.00026142,3.875e-05,0.0,0 STARLINK-4770,1 53849U 22114AH  23291.11530598  .00003875  00000-0  26142-3 0  9999,2 53849  53.2165 255.5996 0001367  99.8456 260.2690 15.08844270 61092,6917.867,95.437,540.678,538.787,0.0
53849.0,STARLINK-4770,PAYLOAD,2023-10-18 04:21:25,15.08843258,0.0001478,53.2175,255.3028,98.0608,262.0551,0.00019495,2.816e-05,0.0,0 STARLINK-4770,1 53849U 22114AH  23291.18154639  .00002816  00000-0  19495-3 0  9991,2 53849  53.2175 255.3028 0001478  98.0608 262.0551 15.08843258 60562,6917.87,95.437,540.758,538.713,0.0
53849.0,STARLINK-4770,PAYLOAD,2023-10-18 07:32:11,15.08845028,0.0001519,53.2177,254.7074,99.23,260.8864,0.00027274,4.056e-05,0.0,0 STARLINK-4770,1 53849U 22114AH  23291.31402616  .00004056  00000-0  27274-3 0  9999,2 53849  53.2177 254.7074 0001519  99.2300 260.8864 15.08845028 61129,6917.865,95.437,540.781,538.679,0.0
53849.0,STARLINK-4770,PAYLOAD,2023-10-19 07:22:58,15.088565,0.0001706,53.2171,250.2451,99.4696,260.6489,0.00066662,0.00010342,0.0,0 STARLINK-4770,1 53849U 22114AH  23292.30762352  .00010342  00000-0  66662-3 0  9994,2 53849  53.2171 250.2451 0001706  99.4696 260.6489 15.08856500 60735,6917.83,95.437,540.875,538.515,0.0
53849.0,STARLINK-4770,PAYLOAD,2023-10-19 21:41:27,15.08846999,0.0001754,53.2173,247.5709,105.1574,254.9612,0.00028495,4.251e-05,0.0,0 STARLINK-4770,1 53849U 22114AH  23292.90378491  .00004251  00000-0  28495-3 0  9991,2 53849  53.2173 247.5709 0001754 105.1574 254.9612 15.08846999 60820,6917.859,95.437,540.937,538.511,0.0
53849.0,STARLINK-4770,PAYLOAD,2023-10-20 07:13:45,15.08849507,0.0001384,53.2163,245.7877,87.728,272.3871,0.00035291,5.335e-05,0.0,0 STARLINK-4770,1 53849U 22114AH  23293.30122403  .00005335  00000-0  35291-3 0  9992,2 53849  53.2163 245.7877 0001384  87.7280 272.3871 15.08849507 61429,6917.851,95.437,540.674,538.759,0.0
53849.0,STARLINK-4770,PAYLOAD,2023-10-21 02:18:24,15.08826716,0.0001292,53.2163,242.2132,94.2667,265.8473,0.00013552,1.869e-05,0.0,0 STARLINK-4770,1 53849U 22114AH  23294.09611470  .00001869  00000-0  13552-3 0  9990,2 53849  53.2163 242.2132 0001292  94.2667 265.8473 15.08826716 61001,6917.921,95.438,540.68,538.892,0.0
53849.0,STARLINK-4770,PAYLOAD,2023-10-21 13:26:06,15.08841973,0.0001435,53.2174,240.1386,87.6296,272.4861,0.00039957,6.077e-05,0.0,0 STARLINK-4770,1 53849U 22114AH  23294.55979356  .00006077  00000-0  39957-3 0  9994,2 53849  53.2174 240.1386 0001435  87.6296 272.4861 15.08841973 61618,6917.874,95.437,540.732,538.747,0.0
53849.0,STARLINK-4770,PAYLOAD,2023-10-22 03:44:33,15.08881266,0.0001226,53.2159,237.4644,88.0547,272.0586,0.0010779,0.00016928,0.0,0 STARLINK-4770,1 53849U 22114AH  23295.15594192  .00016928  00000-0  10779-2 0  9998,2 53849  53.2159 237.4644 0001226  88.0547 272.0586 15.08881266 61168,6917.754,95.435,540.467,538.771,0.0
53849.0,STARLINK-4770,PAYLOAD,2023-10-22 13:16:52,15.08857648,0.0002805,53.216,235.6791,70.9306,289.199,0.00031538,4.737e-05,0.0,0 STARLINK-4770,1 53849U 22114AH  23295.55338586  .00004737  00000-0  31538-3 0  9997,2 53849  53.2160 235.6791 0002805  70.9306 289.1990 15.08857648 61761,6917.826,95.436,541.632,537.751,0.0
53849.0,STARLINK-4770,PAYLOAD,2023-10-23 03:35:21,15.08816165,0.0001376,53.2159,233.003,67.9372,292.1766,0.0011722,0.00018405,0.0,0 STARLINK-4770,1 53849U 22114AH  23296.14955312  .00018405  00000-0  11722-2 0  9994,2 53849  53.2159 233.0030 0001376  67.9372 292.1766 15.08816165 61313,6917.953,95.439,540.77,538.866,0.0
53849.0,STARLINK-4770,PAYLOAD,2023-10-23 13:07:40,15.08824552,0.0001374,53.2159,231.2188,70.1914,289.9226,0.0012057,0.00018945,0.0,0 STARLINK-4770,1 53849U 22114AH  23296.54699904  .00018945  00000-0  12057-2 0  9991,2 53849  53.2159 231.2188 0001374  70.1914 289.9226 15.08824552 61913,6917.928,95.439,540.743,538.842,0.0
53849.0,STARLINK-4770,PAYLOAD,2023-10-24 12:58:27,15.08847148,0.0001624,53.2175,226.7552,85.4846,274.6332,0.0005983,9.249e-05,0.0,0 STARLINK-4770,1 53849U 22114AH  23297.54059857  .00009249  00000-0  59830-3 0  9997,2 53849  53.2175 226.7552 0001624  85.4846 274.6332 15.08847148 61528,6917.859,95.437,540.847,538.6,0.0
53849.0,STARLINK-4770,PAYLOAD,2023-10-25 04:52:18,15.08858763,0.0001418,53.2156,223.783,85.8232,274.2922,0.00068298,0.00010604,0.0,0 STARLINK-4770,1 53849U 22114AH  23298.20299306  .00010604  00000-0  68298-3 0  9991,2 53849  53.2156 223.7830 0001418  85.8232 274.2922 15.08858763 62164,6917.823,95.436,540.669,538.707,0.0
53849.0,STARLINK-4770,PAYLOAD,2023-10-26 04:43:05,15.08854195,0.0001418,53.2165,219.3208,94.2761,265.8393,0.00043599,6.66e-05,0.0,0 STARLINK-4770,1 53849U 22114AH  23299.19659124  .00006660  00000-0  43599-3 0  9992,2 53849  53.2165 219.3208 0001418  94.2761 265.8393 15.08854195 61774,6917.837,95.437,540.683,538.721,0.0
